ZIYUAN 3-02 (ZY 3-02)   
1 41556U 16033A   26193.84189550  .00003286  00000+0  14912-3 0  9993
2 41556  97.3832 269.1227 0013819 193.1718 166.9159 15.21421166561880
